NORAD_CAT_ID,OBJECT_NAME,OBJECT_TYPE,EPOCH,MEAN_MOTION,ECCENTRICITY,INCLINATION,RA_OF_ASC_NODE,ARG_OF_PERICENTER,MEAN_ANOMALY,BSTAR,MEAN_MOTION_DOT,MEAN_MOTION_DDOT,TLE_LINE0,TLE_LINE1,TLE_LINE2,SEMIMAJOR_AXIS,PERIOD,APOGEE,PERIGEE,DECAYED
54080.0,STARLINK-5160,PAYLOAD,2024-01-20 20:25:33,15.08818901,0.0001501,53.2163,235.6245,89.4332,270.6832,-0.00020021,-3.471e-05,0.0,0 STARLINK-5160,1 54080U 22136AF  24020.85108548 -.00003471  00000-0 -20021-3 0  9993,2 54080  53.2163 235.6245 0001501  89.4332 270.6832 15.08818901 69332,6917.945,95.439,540.848,538.771,0.0
54080.0,STARLINK-5160,PAYLOAD,2024-01-21 13:54:48,15.08833065,0.0001577,53.2165,232.3509,126.3984,233.7153,1.2456e-05,-9e-07,0.0,0 STARLINK-5160,1 54080U 22136AF  24021.57972438 -.00000090  00000-0  12456-4 0  9997,2 54080  53.2165 232.3509 0001577 126.3984 233.7153 15.08833065 69927,6917.902,95.438,540.858,538.676,0.0
54080.0,STARLINK-5160,PAYLOAD,2024-01-21 18:40:57,15.0883928,0.0001711,53.2155,231.4676,81.4811,278.6375,0.00012513,1.704e-05,0.0,0 STARLINK-5160,1 54080U 22136AF  24021.77844330  .00001704  00000-0  12513-3 0  9993,2 54080  53.2155 231.4676 0001711  81.4811 278.6375 15.08839280 69953,6917.883,95.438,540.931,538.564,0.0
54080.0,STARLINK-5160,PAYLOAD,2024-01-21 20:16:20,15.08840213,0.0001731,53.2153,231.1703,74.6621,285.4563,0.00015044,2.107e-05,0.0,0 STARLINK-5160,1 54080U 22136AF  24021.84468355  .00002107  00000-0  15044-3 0  9990,2 54080  53.2153 231.1703 0001731  74.6621 285.4563 15.08840213 69485,6917.88,95.438,540.942,538.547,0.0
54080.0,STARLINK-5160,PAYLOAD,2024-01-21 23:27:06,15.08846469,0.0001607,53.2152,230.5722,92.3772,267.7404,0.0002608,3.866e-05,0.0,0 STARLINK-5160,1 54080U 22136AF  24021.97715964  .00003866  00000-0  26080-3 0  9990,2 54080  53.2152 230.5722 0001607  92.3772 267.7404 15.08846469 69503,6917.861,95.437,540.837,538.614,0.0
54080.0,STARLINK-5160,PAYLOAD,2024-01-22 20:07:06,15.08871871,0.0001649,53.2158,226.7057,74.7844,285.333,0.00078591,0.00012253,0.0,0 STARLINK-5160,1 54080U 22136AF  24022.83827389  .00012253  00000-0  78591-3 0  9995,2 54080  53.2158 226.7057 0001649  74.7844 285.3330 15.08871871 70115,6917.783,95.436,540.789,538.507,0.0
54080.0,STARLINK-5160,PAYLOAD,2024-01-23 04:04:02,15.08862714,0.0001675,53.2132,225.2196,71.6039,288.5135,6.7434e-05,7.86e-06,0.0,0 STARLINK-5160,1 54080U 22136AF  24023.16946834  .00000786  00000-0  67434-4 0  9992,2 54080  53.2132 225.2196 0001675  71.6039 288.5135 15.08862714 70165,6917.811,95.436,540.835,538.517,0.0
54080.0,STARLINK-5160,PAYLOAD,2024-01-23 21:33:16,15.0885558,0.000155,53.2146,221.9477,80.1719,279.9448,0.00018938,2.729e-05,0.0,0 STARLINK-5160,1 54080U 22136AF  24023.89810316  .00002729  00000-0  18938-3 0  9990,2 54080  53.2146 221.9477 0001550  80.1719 279.9448 15.08855580 69798,6917.833,95.437,540.77,538.626,0.0
54080.0,STARLINK-5160,PAYLOAD,2024-01-24 02:19:25,15.08844246,0.0001608,53.2141,221.0548,80.6362,279.4812,-0.00024076,-4.118e-05,0.0,0 STARLINK-5160,1 54080U 22136AF  24024.09682481 -.00004118  00000-0 -24076-3 0  9999,2 54080  53.2141 221.0548 0001608  80.6362 279.4812 15.08844246 70302,6917.867,95.437,540.845,538.62,0.0
54080.0,STARLINK-5160,PAYLOAD,2024-01-24 11:51:44,15.08845462,0.0001589,53.2141,219.2708,81.4911,278.6261,7.6509e-05,9.3e-06,0.0,0 STARLINK-5160,1 54080U 22136AF  24024.49426459  .00000930  00000-0  76509-4 0  9999,2 54080  53.2141 219.2708 0001589  81.4911 278.6261 15.08845462 69887,6917.864,95.437,540.828,538.629,0.0
54080.0,STARLINK-5160,PAYLOAD,2024-01-24 21:24:03,15.08844814,0.0001484,53.2141,217.4869,85.9804,274.1358,0.00025299,3.741e-05,0.0,0 STARLINK-5160,1 54080U 22136AF  24024.89170504  .00003741  00000-0  25299-3 0  9992,2 54080  53.2141 217.4869 0001484  85.9804 274.1358 15.08844814 69944,6917.866,95.437,540.757,538.704,0.0
54080.0,STARLINK-5160,PAYLOAD,2024-01-24 22:59:26,15.08844604,0.0001487,53.2141,217.1894,86.0669,274.0493,0.00026587,3.946e-05,0.0,0 STARLINK-5160,1 54080U 22136AF  24024.95794521  .00003946  00000-0  26587-3 0  9998,2 54080  53.2141 217.1894 0001487  86.0669 274.0493 15.08844604 69950,6917.866,95.437,540.76,538.703,0.0
54080.0,STARLINK-5160,PAYLOAD,2024-01-25 18:04:04,15.08841106,0.0001467,53.2142,213.6213,85.8632,274.2527,0.0001763,2.519e-05,0.0,0 STARLINK-5160,1 54080U 22136AF  24025.75282796  .00002519  00000-0  17630-3 0  9997,2 54080  53.2142 213.6213 0001467  85.8632 274.2527 15.08841106 70554,6917.877,95.437,540.757,538.727,0.0
54080.0,STARLINK-5160,PAYLOAD,2024-01-26 19:30:14,15.08838046,0.000145,53.2143,208.8635,86.8787,273.2371,0.00011679,1.571e-05,0.0,0 STARLINK-5160,1 54080U 22136AF  24026.81267146  .00001571  00000-0  11679-3 0  9991,2 54080  53.2143 208.8635 0001450  86.8787 273.2371 15.08838046 70716,6917.886,95.438,540.754,538.748,0.0
54080.0,STARLINK-5160,PAYLOAD,2024-01-27 20:56:24,15.0884744,0.0001453,53.215,204.1045,80.6363,279.4793,0.00026347,3.908e-05,0.0,0 STARLINK-5160,1 54080U 22136AF  24027.87250845  .00003908  00000-0  26347-3 0  9990,2 54080  53.2150 204.1045 0001453  80.6363 279.4793 15.08847440 70391,6917.858,95.437,540.728,538.717,0.0
54080.0,STARLINK-5160,PAYLOAD,2024-01-28 11:14:53,15.08833091,0.0001289,53.2159,201.4261,86.8873,273.2266,0.00019228,2.773e-05,0.0,0 STARLINK-5160,1 54080U 22136AF  24028.46867370  .00002773  00000-0  19228-3 0  9992,2 54080  53.2159 201.4261 0001289  86.8873 273.2266 15.08833091 70968,6917.902,95.438,540.658,538.875,0.0
54080.0,STARLINK-5160,PAYLOAD,2024-01-28 17:36:26,15.08837216,0.0001493,53.2158,200.2394,87.089,273.0273,5.7021e-05,6.2e-06,0.0,0 STARLINK-5160,1 54080U 22136AF  24028.73363476  .00000620  00000-0  57021-4 0  9993,2 54080  53.2158 200.2394 0001493  87.0890 273.0273 15.08837216 70521,6917.889,95.438,540.787,538.721,0.0
54080.0,STARLINK-5160,PAYLOAD,2024-01-29 11:05:40,15.08847541,0.0001377,53.2163,196.9666,108.3737,251.7404,7.0517e-05,8.35e-06,0.0,0 STARLINK-5160,1 54080U 22136AF  24029.46226895  .00000835  00000-0  70517-4 0  9990,2 54080  53.2163 196.9666 0001377 108.3737 251.7404 15.08847541 71115,6917.857,95.437,540.675,538.77,0.0
54080.0,STARLINK-5160,PAYLOAD,2024-01-30 14:07:13,15.0884362,0.0001212,53.2152,191.9114,79.3874,280.7255,0.00013559,1.871e-05,0.0,0 STARLINK-5160,1 54080U 22136AF  24030.58835196  .00001871  00000-0  13559-3 0  9998,2 54080  53.2152 191.9114 0001212  79.3874 280.7255 15.08843620 70808,6917.869,95.437,540.573,538.896,0.0
54080.0,STARLINK-5160,PAYLOAD,2024-01-30 17:17:59,15.08842558,0.000117,53.2153,191.3167,81.3672,278.7453,0.00010982,1.46e-05,0.0,0 STARLINK-5160,1 54080U 22136AF  24030.72083203  .00001460  00000-0  10982-3 0  9999,2 54080  53.2153 191.3167 0001170  81.3672 278.7453 15.08842558 71305,6917.873,95.437,540.547,538.928,0.0
54080.0,STARLINK-5160,PAYLOAD,2024-01-30 20:28:46,15.088408,0.0001243,53.2159,190.7229,84.2709,275.8425,7.6823e-05,9.35e-06,0.0,0 STARLINK-5160,1 54080U 22136AF  24030.85331256  .00000935  00000-0  76823-4 0  9990,2 54080  53.2159 190.7229 0001243  84.2709 275.8425 15.08840800 70840,6917.878,95.438,540.603,538.883,0.0
54080.0,STARLINK-5160,PAYLOAD,2024-01-31 10:47:14,15.08836017,0.000128,53.2164,188.0462,90.9456,269.1683,3.4731e-05,2.65e-06,0.0,0 STARLINK-5160,1 54080U 22136AF  24031.44947740  .00000265  00000-0  34731-4 0  9995,2 54080  53.2164 188.0462 0001280  90.9456 269.1683 15.08836017 71410,6917.893,95.438,540.643,538.872,0.0
54080.0,STARLINK-5160,PAYLOAD,2024-02-01 10:38:01,15.08835225,0.0001409,53.217,183.5847,102.8452,257.2698,9.74e-05,1.262e-05,0.0,0 STARLINK-5160,1 54080U 22136AF  24032.44307727  .00001262  00000-0  97400-4 0  9991,2 54080  53.2170 183.5847 0001409 102.8452 257.2698 15.08835225 71083,6917.895,95.438,540.735,538.785,0.0
54080.0,STARLINK-5160,PAYLOAD,2024-02-02 08:53:25,15.08840485,0.0001378,53.2176,179.4228,95.794,264.3209,3.6398e-05,2.91e-06,0.0,0 STARLINK-5160,1 54080U 22136AF  24033.37043618  .00000291  00000-0  36398-4 0  9990,2 54080  53.2176 179.4228 0001378  95.7940 264.3209 15.08840485 71703,6917.879,95.438,540.697,538.791,0.0
54080.0,STARLINK-5160,PAYLOAD,2024-02-02 13:39:35,15.0884155,0.0001447,53.2179,178.5311,93.7727,266.343,4.7476e-05,4.68e-06,0.0,0 STARLINK-5160,1 54080U 22136AF  24033.56915570  .00000468  00000-0  47476-4 0  9991,2 54080  53.2179 178.5311 0001447  93.7727 266.3430 15.08841550 71259,6917.876,95.437,540.742,538.74,0.0
54080.0,STARLINK-5160,PAYLOAD,2024-02-02 15:14:58,15.08838557,0.0001342,53.2174,178.2345,98.4415,261.6729,9.4263e-05,1.213e-05,0.0,0 STARLINK-5160,1 54080U 22136AF  24033.63539859  .00001213  00000-0  94263-4 0  9996,2 54080  53.2174 178.2345 0001342  98.4415 261.6729 15.08838557 71261,6917.885,95.438,540.678,538.821,0.0
54080.0,STARLINK-5160,PAYLOAD,2024-02-03 13:30:22,15.08840534,0.0001343,53.2175,174.0718,97.635,262.4795,7.8433e-05,9.61e-06,0.0,0 STARLINK-5160,1 54080U 22136AF  24034.56275937  .00000961  00000-0  78433-4 0  9993,2 54080  53.2175 174.0718 0001343  97.6350 262.4795 15.08840534 71406,6917.879,95.438,540.673,538.815,0.0
54080.0,STARLINK-5160,PAYLOAD,2024-02-03 18:16:31,15.08844355,0.0001571,53.2183,173.1796,107.4658,252.6506,0.00010323,1.355e-05,0.0,0 STARLINK-5160,1 54080U 22136AF  24034.76147590  .00001355  00000-0  10323-3 0  9999,2 54080  53.2183 173.1796 0001571 107.4658 252.6506 15.08844355 71917,6917.867,95.437,540.819,538.645,0.0
54080.0,STARLINK-5160,PAYLOAD,2024-02-04 02:13:27,15.08835676,0.0001412,53.2174,171.6932,87.4742,272.6412,4.0415e-05,3.55e-06,0.0,0 STARLINK-5160,1 54080U 22136AF  24035.09268361  .00000355  00000-0  40415-4 0  9991,2 54080  53.2174 171.6932 0001412  87.4742 272.6412 15.08835676 71966,6917.894,95.438,540.735,538.782,0.0
54080.0,STARLINK-5160,PAYLOAD,2024-02-04 14:56:33,15.08834596,0.000154,53.2175,169.3152,86.5663,273.5506,4.0764e-05,3.61e-06,0.0,0 STARLINK-5160,1 54080U 22136AF  24035.62260725  .00000361  00000-0  40764-4 0  9990,2 54080  53.2175 169.3152 0001540  86.5663 273.5506 15.08834596 71569,6917.897,95.438,540.827,538.697,0.0
